NEUTRON-1               
1 46923U 98067RT  20352.89222688  .00008400  00000-0  15019-3 0  9992
2 46923  51.6415 159.0881 0002607 135.9425 224.1772 15.50903069  6687
1998-067RU              
1 46924U 98067RU  20353.46250957  .00016934  00000-0  28599-3 0  9995
2 46924  51.6411 156.1470 0002497 173.7149 186.3873 15.51735264  6734
DESCENT                 
1 46927U 98067RX  20352.95839493  .00008708  00000-0  15566-3 0  9999
2 46927  51.6413 158.7795 0002688 155.2794 204.8324 15.50857583  6601
